NORAD_CAT_ID,OBJECT_NAME,OBJECT_TYPE,EPOCH,MEAN_MOTION,ECCENTRICITY,INCLINATION,RA_OF_ASC_NODE,ARG_OF_PERICENTER,MEAN_ANOMALY,BSTAR,MEAN_MOTION_DOT,MEAN_MOTION_DDOT,TLE_LINE0,TLE_LINE1,TLE_LINE2,SEMIMAJOR_AXIS,PERIOD,APOGEE,PERIGEE,DECAYED
52469.0,STARLINK-3828,PAYLOAD,2023-11-29 19:24:08,15.08846882,0.0001334,53.2144,189.0949,89.939,270.1755,0.00017851,2.555e-05,0.0,0 STARLINK-3828,1 52469U 22049U   23333.80843004  .00002555  00000-0  17851-3 0  9996,2 52469  53.2144 189.0949 0001334  89.9390 270.1755 15.08846882 86973,6917.859,95.437,540.647,538.802,0.0
52469.0,STARLINK-3828,PAYLOAD,2023-12-01 00:01:04,15.08846015,0.0001516,53.2149,183.7371,98.0862,262.0302,-2.1053e-06,-3.22e-06,0.0,0 STARLINK-3828,1 52469U 22049U   23335.00074841 -.00000322  00000-0 -21053-5 0  9998,2 52469  53.2149 183.7371 0001516  98.0862 262.0302 15.08846015 87152,6917.862,95.437,540.776,538.678,0.0
52469.0,STARLINK-3828,PAYLOAD,2023-12-01 19:05:42,15.08843433,0.0001512,53.2151,180.1679,92.4613,267.6552,0.0001777,2.542e-05,0.0,0 STARLINK-3828,1 52469U 22049U   23335.79563038  .00002542  00000-0  17770-3 0  9998,2 52469  53.2151 180.1679 0001512  92.4613 267.6552 15.08843433 87110,6917.87,95.437,540.781,538.689,0.0
52469.0,STARLINK-3828,PAYLOAD,2023-12-02 12:34:56,15.08849208,0.0001518,53.2151,176.8974,94.17,265.9466,0.00021379,3.117e-05,0.0,0 STARLINK-3828,1 52469U 22049U   23336.52426630  .00003117  00000-0  21379-3 0  9995,2 52469  53.2151 176.8974 0001518  94.1700 265.9466 15.08849208 87382,6917.852,95.437,540.767,538.667,0.0
52469.0,STARLINK-3828,PAYLOAD,2023-12-02 18:56:28,15.0884806,0.0001518,53.2149,175.7091,102.5148,257.6014,0.0001523,2.137e-05,0.0,0 STARLINK-3828,1 52469U 22049U   23336.78922452  .00002137  00000-0  15230-3 0  9996,2 52469  53.2149 175.7091 0001518 102.5148 257.6014 15.08848060 87266,6917.856,95.437,540.771,538.671,0.0
52469.0,STARLINK-3828,PAYLOAD,2023-12-02 23:42:38,15.08848977,0.0001524,53.2149,174.8169,102.7766,257.3397,0.00014223,1.977e-05,0.0,0 STARLINK-3828,1 52469U 22049U   23336.98794248  .00001977  00000-0  14223-3 0  9990,2 52469  53.2149 174.8169 0001524 102.7766 257.3397 15.08848977 87298,6917.853,95.437,540.772,538.664,0.0
52469.0,STARLINK-3828,PAYLOAD,2023-12-03 20:22:38,15.08834616,0.0001485,53.2152,170.9518,103.9189,256.1969,-0.00016272,-2.876e-05,0.0,0 STARLINK-3828,1 52469U 22049U   23337.84906073 -.00002876  00000-0 -16272-3 0  9994,2 52469  53.2152 170.9518 0001485 103.9189 256.1969 15.08834616 87584,6917.897,95.438,540.789,538.735,0.0
52469.0,STARLINK-3828,PAYLOAD,2023-12-05 15:18:04,15.08831366,0.0001333,53.2151,162.9219,81.8358,278.2785,-6.4151e-05,-1.308e-05,0.0,0 STARLINK-3828,1 52469U 22049U   23339.63754872 -.00001308  00000-0 -64151-4 0  9990,2 52469  53.2151 162.9219 0001333  81.8358 278.2785 15.08831366 87856,6917.907,95.438,540.694,538.85,0.0
52469.0,STARLINK-3828,PAYLOAD,2023-12-05 21:39:37,15.08828884,0.0001332,53.2148,161.7315,88.1889,271.9255,0.00015059,2.109e-05,0.0,0 STARLINK-3828,1 52469U 22049U   23339.90251250  .00002109  00000-0  15059-3 0  9992,2 52469  53.2148 161.7315 0001332  88.1889 271.9255 15.08828884 87734,6917.914,95.438,540.701,538.858,0.0
52469.0,STARLINK-3828,PAYLOAD,2023-12-06 11:58:05,15.08836844,0.0001318,53.2155,159.0556,94.4914,265.6229,3.7689e-06,-2.28e-06,0.0,0 STARLINK-3828,1 52469U 22049U   23340.49867173 -.00000228  00000-0  37689-5 0  9991,2 52469  53.2155 159.0556 0001318  94.4914 265.6229 15.08836844 87828,6917.89,95.438,540.667,538.843,0.0
52469.0,STARLINK-3828,PAYLOAD,2023-12-07 11:48:52,15.08837768,0.000127,53.2143,154.5962,88.2069,271.9069,0.00016066,2.27e-05,0.0,0 STARLINK-3828,1 52469U 22049U   23341.49227667  .00002270  00000-0  16066-3 0  9992,2 52469  53.2143 154.5962 0001270  88.2069 271.9069 15.08837768 88138,6917.887,95.438,540.631,538.874,0.0
52469.0,STARLINK-3828,PAYLOAD,2023-12-08 11:39:37,15.0886,0.0001261,53.2153,150.1346,92.8963,267.2173,0.00019579,2.831e-05,0.0,0 STARLINK-3828,1 52469U 22049U   23342.48584970  .00002831  00000-0  19579-3 0  9990,2 52469  53.2153 150.1346 0001261  92.8963 267.2173 15.08860000 88286,6917.819,95.436,540.557,538.812,0.0
52469.0,STARLINK-3828,PAYLOAD,2023-12-08 14:50:24,15.0885522,0.0001182,53.2153,149.5387,102.5894,257.523,0.00022464,3.291e-05,0.0,0 STARLINK-3828,1 52469U 22049U   23342.61833501  .00003291  00000-0  22464-3 0  9990,2 52469  53.2153 149.5387 0001182 102.5894 257.5230 15.08855220 88304,6917.834,95.437,540.517,538.881,0.0
52469.0,STARLINK-3828,PAYLOAD,2023-12-08 21:11:58,15.08831653,0.0003356,53.2124,148.3512,101.3694,258.7675,-1.1457e-05,-4.71e-06,0.0,0 STARLINK-3828,1 52469U 22049U   23342.88331380 -.00000471  00000-0 -11457-4 0  9997,2 52469  53.2124 148.3512 0003356 101.3694 258.7675 15.08831653 88185,6917.906,95.438,542.093,537.449,0.0
52469.0,STARLINK-3828,PAYLOAD,2023-12-09 11:30:23,15.08989378,0.0001335,53.212,145.6776,101.0157,259.0985,-0.0021785,-0.00034933,0.0,0 STARLINK-3828,1 52469U 22049U   23343.47944039 -.00034933  00000-0 -21785-2 0  9997,2 52469  53.2120 145.6776 0001335 101.0157 259.0985 15.08989378 88433,6917.424,95.428,540.212,538.365,0.0
52469.0,STARLINK-3828,PAYLOAD,2023-12-09 14:41:12,15.08840772,0.000154,53.2158,145.0787,102.331,257.7854,-0.00010066,-1.89e-05,0.0,0 STARLINK-3828,1 52469U 22049U   23343.61195157 -.00001890  00000-0 -10066-3 0  9999,2 52469  53.2158 145.0787 0001540 102.3310 257.7854 15.08840772 88459,6917.878,95.438,540.808,538.678,0.0
52469.0,STARLINK-3828,PAYLOAD,2023-12-10 14:32:00,15.0880673,0.000174,53.216,140.6181,96.7038,263.4153,0.00039814,6.048e-05,0.0,0 STARLINK-3828,1 52469U 22049U   23344.60556027  .00006048  00000-0  39814-3 0  9996,2 52469  53.2160 140.6181 0001740  96.7038 263.4153 15.08806730 88447,6917.982,95.44,541.051,538.643,0.0
52469.0,STARLINK-3828,PAYLOAD,2023-12-10 17:42:45,15.08843341,0.0001172,53.2166,140.0234,90.2946,269.818,-0.00013852,-2.492e-05,0.0,0 STARLINK-3828,1 52469U 22049U   23344.73803072 -.00002492  00000-0 -13852-3 0  9990,2 52469  53.2166 140.0234 0001172  90.2946 269.8180 15.08843341 88621,6917.87,95.437,540.546,538.924,0.0
52469.0,STARLINK-3828,PAYLOAD,2023-12-11 14:22:47,15.08832114,0.0001208,53.2169,136.158,84.0854,276.0276,0.00010882,1.444e-05,0.0,0 STARLINK-3828,1 52469U 22049U   23345.59915858  .00001444  00000-0  10882-3 0  9995,2 52469  53.2169 136.1580 0001208  84.0854 276.0276 15.08832114 88591,6917.904,95.438,540.605,538.934,0.0
52469.0,STARLINK-3828,PAYLOAD,2023-12-11 17:33:33,15.08833894,0.0001221,53.2171,135.5633,81.7248,278.3883,0.00012057,1.631e-05,0.0,0 STARLINK-3828,1 52469U 22049U   23345.73163821  .00001631  00000-0  12057-3 0  9990,2 52469  53.2171 135.5633 0001221  81.7248 278.3883 15.08833894 88777,6917.899,95.438,540.609,538.919,0.0
52469.0,STARLINK-3828,PAYLOAD,2023-12-12 14:13:34,15.08836194,0.0001191,53.2172,131.7017,89.0129,271.0999,0.00010723,1.419e-05,0.0,0 STARLINK-3828,1 52469U 22049U   23346.59276143  .00001419  00000-0  10723-3 0  9999,2 52469  53.2172 131.7017 0001191  89.0129 271.0999 15.08836194 88748,6917.892,95.438,540.581,538.933,0.0
52469.0,STARLINK-3828,PAYLOAD,2023-12-12 17:24:20,15.08838617,0.0001222,53.2169,131.1052,83.8252,276.288,0.00013034,1.787e-05,0.0,0 STARLINK-3828,1 52469U 22049U   23346.72524006  .00001787  00000-0  13034-3 0  9994,2 52469  53.2169 131.1052 0001222  83.8252 276.2880 15.08838617 88761,6917.885,95.438,540.595,538.904,0.0
52469.0,STARLINK-3828,PAYLOAD,2023-12-13 14:04:21,15.088435,0.0001488,53.2177,127.2365,68.4035,291.7116,0.00012181,1.651e-05,0.0,0 STARLINK-3828,1 52469U 22049U   23347.58635873  .00001651  00000-0  12181-3 0  9996,2 52469  53.2177 127.2365 0001488  68.4035 291.7116 15.08843500 88890,6917.87,95.437,540.764,538.705,0.0
52469.0,STARLINK-3828,PAYLOAD,2023-12-13 17:15:07,15.08846337,0.0001648,53.2179,126.6385,61.8338,298.2821,0.00014691,2.051e-05,0.0,0 STARLINK-3828,1 52469U 22049U   23347.71883673  .00002051  00000-0  14691-3 0  9997,2 52469  53.2179 126.6385 0001648  61.8338 298.2821 15.08846337 89075,6917.861,95.437,540.866,538.586,0.0
52469.0,STARLINK-3828,PAYLOAD,2023-12-14 13:55:08,15.08840382,0.0001424,53.2171,122.7737,73.9066,286.2083,5.2319e-05,5.45e-06,0.0,0 STARLINK-3828,1 52469U 22049U   23348.57996281  .00000545  00000-0  52319-4 0  9998,2 52469  53.2171 122.7737 0001424  73.9066 286.2083 15.08840382 89047,6917.879,95.438,540.729,538.759,0.0
52469.0,STARLINK-3828,PAYLOAD,2023-12-14 15:30:31,15.0884134,0.0001429,53.2172,122.4792,73.0609,287.054,6.6136e-05,7.65e-06,0.0,0 STARLINK-3828,1 52469U 22049U   23348.64620245  .00000765  00000-0  66136-4 0  9996,2 52469  53.2172 122.4792 0001429  73.0609 287.0540 15.08841340 89216,6917.876,95.437,540.73,538.753,0.0
52469.0,STARLINK-3828,PAYLOAD,2023-12-15 13:45:56,15.08836916,0.0001267,53.216,118.3201,84.5997,275.514,5.2354e-06,-2.05e-06,0.0,0 STARLINK-3828,1 52469U 22049U   23349.57356569 -.00000205  00000-0  52354-5 0  9992,2 52469  53.2160 118.3201 0001267  84.5997 275.5140 15.08836916 89197,6917.89,95.438,540.631,538.878,0.0
52469.0,STARLINK-3828,PAYLOAD,2023-12-15 15:21:19,15.08839128,0.0001299,53.2157,118.0179,78.4306,281.6832,4.2255e-06,-2.21e-06,0.0,0 STARLINK-3828,1 52469U 22049U   23349.63980435 -.00000221  00000-0  42255-5 0  9991,2 52469  53.2157 118.0179 0001299  78.4306 281.6832 15.08839128 89201,6917.883,95.438,540.647,538.849,0.0
52469.0,STARLINK-3828,PAYLOAD,2023-12-16 13:36:42,15.08842591,0.0001376,53.2165,113.8598,97.178,262.9369,0.00019943,2.888e-05,0.0,0 STARLINK-3828,1 52469U 22049U   23350.56716385  .00002888  00000-0  19943-3 0  9992,2 52469  53.2165 113.8598 0001376  97.1780 262.9369 15.08842591 89348,6917.872,95.437,540.689,538.786,0.0
52469.0,STARLINK-3828,PAYLOAD,2023-12-16 15:12:05,15.08845369,0.0001401,53.2164,113.5609,99.3181,260.797,0.00023759,3.496e-05,0.0,0 STARLINK-3828,1 52469U 22049U   23350.63340226  .00003496  00000-0  23759-3 0  9993,2 52469  53.2164 113.5609 0001401  99.3181 260.7970 15.08845369 89356,6917.864,95.437,540.698,538.76,0.0
